{
  "type": "FeatureCollection",
  "features": [
    {
      "type": "Feature",
      "properties": {
        "norad_id": 50032,
        "name": "COSMOS 1408 DEB",
        "group": "cosmos-1408-debris",
        "lat": -71.59586339296746,
        "lon": 28.99867364792076,
        "alt_km": 438.66325290788154,
        "timestamp": "2025-12-18T23:35:49.330728+00:00",
        "meta_object_name": "COSMOS 1408 DEB",
        "meta_object_id": "1982-092RU",
        "meta_epoch": "2025-12-18T14:35:30.154560",
        "meta_mean_motion": 15.45751534,
        "meta_eccentricity": 0.00158163,
        "meta_inclination": 82.5642,
        "meta_ra_of_asc_node": 52.4947,
        "meta_arg_of_pericenter": 186.4952,
        "meta_mean_anomaly": 173.6095,
        "meta_ephemeris_type": 0,
        "meta_classification_type": "U",
        "meta_norad_cat_id": 50032,
        "meta_element_set_no": 999,
        "meta_rev_at_epoch": 22694,
        "meta_bstar": 8.736421e-05,
        "meta_mean_motion_dot": 4.285e-05,
        "meta_mean_motion_ddot": 0,
        "tle_line1": "1 50032U 82092RU  25352.60798790  .00004285  00000+0  87364-4 0  9994",
        "tle_line2": "2 50032  82.5642  52.4947 0015816 186.4952 173.6095 15.45751534226940"
      },
      "geometry": {
        "type": "Point",
        "coordinates": [
          28.99867364792076,
          -71.59586339296746
        ]
      }
    },
    {
      "type": "Feature",
      "properties": {
        "norad_id": 50058,
        "name": "COSMOS 1408 DEB",
        "group": "cosmos-1408-debris",
        "lat": -5.481141476318979,
        "lon": -116.48056313833543,
        "alt_km": 381.96430315204,
        "timestamp": "2025-12-18T23:35:49.330749+00:00",
        "meta_object_name": "COSMOS 1408 DEB",
        "meta_object_id": "1982-092SW",
        "meta_epoch": "2025-12-18T13:35:52.596672",
        "meta_mean_motion": 15.6444692,
        "meta_eccentricity": 0.00161966,
        "meta_inclination": 82.6131,
        "meta_ra_of_asc_node": 63.2424,
        "meta_arg_of_pericenter": 78.9589,
        "meta_mean_anomaly": 281.3491,
        "meta_ephemeris_type": 0,
        "meta_classification_type": "U",
        "meta_norad_cat_id": 50058,
        "meta_element_set_no": 999,
        "meta_rev_at_epoch": 22895,
        "meta_bstar": 0.00028591151,
        "meta_mean_motion_dot": 0.00027692,
        "meta_mean_motion_ddot": 0,
        "tle_line1": "1 50058U 82092SW  25352.56658098  .00027692  00000+0  28591-3 0  9996",
        "tle_line2": "2 50058  82.6131  63.2424 0016196  78.9589 281.3491 15.64446920228956"
      },
      "geometry": {
        "type": "Point",
        "coordinates": [
          -116.48056313833543,
          -5.481141476318979
        ]
      }
    },
    {
      "type": "Feature",
      "properties": {
        "norad_id": 50404,
        "name": "COSMOS 1408 DEB",
        "group": "cosmos-1408-debris",
        "lat": -73.36417409490274,
        "lon": 55.93037746273177,
        "alt_km": 502.306138812728,
        "timestamp": "2025-12-18T23:35:49.330763+00:00",
        "meta_object_name": "COSMOS 1408 DEB",
        "meta_object_id": "1982-092ADS",
        "meta_epoch": "2025-12-18T14:33:17.055360",
        "meta_mean_motion": 15.14678102,
        "meta_eccentricity": 0.01696438,
        "meta_inclination": 82.2037,
        "meta_ra_of_asc_node": 209.023,
        "meta_arg_of_pericenter": 178.8165,
        "meta_mean_anomaly": 181.3506,
        "meta_ephemeris_type": 0,
        "meta_classification_type": "U",
        "meta_norad_cat_id": 50404,
        "meta_element_set_no": 999,
        "meta_rev_at_epoch": 21282,
        "meta_bstar": 0.0025991893,
        "meta_mean_motion_dot": 0.00069718,
        "meta_mean_motion_ddot": 0,
        "tle_line1": "1 50404U 82092ADS 25352.60644740  .00069718  00000+0  25992-2 0  9991",
        "tle_line2": "2 50404  82.2037 209.0230 0169643 178.8165 181.3506 15.14678102212822"
      },
      "geometry": {
        "type": "Point",
        "coordinates": [
          55.93037746273177,
          -73.36417409490274
        ]
      }
    },
    {
      "type": "Feature",
      "properties": {
        "norad_id": 50621,
        "name": "COSMOS 1408 DEB",
        "group": "cosmos-1408-debris",
        "lat": 33.243417322642934,
        "lon": 72.58690993025799,
        "alt_km": 396.4790460303093,
        "timestamp": "2025-12-18T23:35:49.330774+00:00",
        "meta_object_name": "COSMOS 1408 DEB",
        "meta_object_id": "1982-092ALR",
        "meta_epoch": "2025-12-18T11:06:47.508768",
        "meta_mean_motion": 15.56954115,
        "meta_eccentricity": 0.00290327,
        "meta_inclination": 82.5704,
        "meta_ra_of_asc_node": 68.2218,
        "meta_arg_of_pericenter": 131.6099,
        "meta_mean_anomaly": 228.7651,
        "meta_ephemeris_type": 0,
        "meta_classification_type": "U",
        "meta_norad_cat_id": 50621,
        "meta_element_set_no": 999,
        "meta_rev_at_epoch": 22339,
        "meta_bstar": 0.0003366426,
        "meta_mean_motion_dot": 0.00024798,
        "meta_mean_motion_ddot": 0,
        "tle_line1": "1 50621U 82092ALR 25352.46304987  .00024798  00000+0  33664-3 0  9997",
        "tle_line2": "2 50621  82.5704  68.2218 0029032 131.6099 228.7651 15.56954115223396"
      },
      "geometry": {
        "type": "Point",
        "coordinates": [
          72.58690993025799,
          33.243417322642934
        ]
      }
    }
  ]
}